[{"OBJECT_NAME":"TIANQI-15","OBJECT_ID":"2021-065B","EPOCH":"2026-03-09T19:28:45.472224","MEAN_MOTION":15.09508085,"ECCENTRICITY":0.00070671,"INCLINATION":34.9979,"RA_OF_ASC_NODE":108.242,"ARG_OF_PERICENTER":250.7766,"MEAN_ANOMALY":109.218,"EPHEMERIS_TYPE":0,"CLASSIFICATION_TYPE":"U","NORAD_CAT_ID":49027,"ELEMENT_SET_NO":999,"REV_AT_EPOCH":25424,"BSTAR":0.00041179088,"MEAN_MOTION_DOT":6.722e-5,"MEAN_MOTION_DDOT":0},{"OBJECT_NAME":"STARLINK-3721","OBJECT_ID":"2022-029AY","EPOCH":"2026-03-09T06:34:34.208256","MEAN_MOTION":15.0883896,"ECCENTRICITY":0.00013808,"INCLINATION":53.2182,"RA_OF_ASC_NODE":70.9864,"ARG_OF_PERICENTER":93.7972,"MEAN_ANOMALY":266.3178,"EPHEMERIS_TYPE":0,"CLASSIFICATION_TYPE":"U","NORAD_CAT_ID":52134,"ELEMENT_SET_NO":999,"REV_AT_EPOCH":22087,"BSTAR":3.2336232e-5,"MEAN_MOTION_DOT":2.27e-6,"MEAN_MOTION_DDOT":0}]
